ONEWEB-0449             
1 51642U 22012W   22146.84287907 -.00132901  00000+0 -30891+0 0  9992
2 51642  87.9342 331.0077 0010988 256.4826 103.5086 13.25542678 16455
ONEWEB-0451             
1 51643U 22012X   22146.54033396  .00001738  00000+0  16142-3 0  9999
2 51643  87.1829 324.3019 0002799  83.8637 276.2911 14.93787570 17030
ONEWEB-0452             
1 51644U 22012Y   22146.54788247 -.00000629  00000+0 -62166-4 0  9990
2 51644  87.1820 324.3000 0004082  85.5333 274.6363 14.93793532 15745
ONEWEB-0455             
1 51645U 22012Z   22146.79389010  .00000283  00000+0  11945-3 0  9995
2 51645  87.5276 329.3495 0014910 260.4727  99.4778 14.22264029 16627
ONEWEB-0456             
1 51646U 22012AA  22146.91667824  .00046153  00000+0  10597+0 0  9996
2 51646  87.9367 331.0102 0008430 265.2900  61.8950 13.25015700 16496
ONEWEB-0457             
1 51647U 22012AB  22146.91667824  .00000013  00000+0  00000+0 0  9990
2 51647  87.9282 330.8805 0013340 270.2697 256.6128 13.27591245 16491
ONEWEB-0458             
1 51648U 22012AC  22146.91667824  .00051195  00000+0  11831+0 0  9992
2 51648  87.9409 330.9973 0008094 250.9689 348.1437 13.24548035 16469
ONEWEB-0461             
1 51649U 22012AD  22146.51954710  .00002442  00000+0  22794-3 0  9997
2 51649  87.2430 324.9804 0002762  64.2969 295.8545 14.93787479 15726
ONEWEB-0463             
1 51650U 22012AE  22146.53434533  .00001921  00000+0  17869-3 0  9995
2 51650  87.1833 324.3103 0004373 102.0692 258.1028 14.93780586 17030
ONEWEB-0464             
1 51651U 22012AF  22146.91667824  .00046625  00000+0  10741+0 0  9997
2 51651  87.9359 331.0036 0005844 264.1749 110.0218 13.24796911 16486
ONEWEB-0468             
1 51652U 22012AG  22146.91667824  .00038864  00000+0  89417-1 0  9992
2 51652  87.9352 331.0029 0003554 265.0902 336.8563 13.24940105 16442
ONEWEB-0473             
1 51653U 22012AH  22146.91667824  .00044174  00000+0  10066+0 0  9996
2 51653  87.9341 330.9892 0002396 271.6371 137.9363 13.25547803 16473
ONEWEB-0474             
1 51654U 22012AJ  22146.91667824  .00046139  00000+0  10681+0 0  9993
2 51654  87.9393 331.0085 0000505 335.1798 240.4913 13.24480355 16441
ONEWEB-0475             
1 51655U 22012AK  22146.55473669  .00002221  00000+0  20711-3 0  9999
2 51655  87.1888 324.3707 0003664  95.5599 264.6049 14.93774812 15734
